     3.01           N: GNSS NAV DATA    R: GLONASS          RINEX VERSION / TYPE
LEICA GEO OFFICE 8.3                    20250417 120511 UTC PGM / RUN BY / DATE
    18    18  2185     7                                    LEAP SECONDS
                                                            END OF HEADER
R01 2023 06 27 11 45 02 6.024073809385D-05 0.000000000000D+00 2.151180000000D+05
     2.027692822266D+04-1.346091270447D+00 0.000000000000D+00 0.000000000000D+00
     1.130055322266D+04-5.458002090454D-01 0.000000000000D+00 1.000000000000D+00
     1.055925537109D+04 3.170925140381D+00 0.000000000000D+00 0.000000000000D+00
R02 2023 06 27 11 45 02-2.266652882099D-05 0.000000000000D+00 2.151180000000D+05
     2.396685302734D+04 1.058132171631D+00 0.000000000000D+00 0.000000000000D+00
     4.276229980469D+03 1.685867309570D-01-9.313225746155D-10-4.000000000000D+00
    -7.674051269531D+03 3.372811317444D+00 1.862645149231D-09 0.000000000000D+00
R08 2023 06 27 10 45 02-7.141660898924D-05 0.000000000000D+00 2.115180000000D+05
     1.238658056641D+04-1.633988380432D+00 0.000000000000D+00 0.000000000000D+00
     1.656149755859D+04-1.233746528625D+00 0.000000000000D+00 6.000000000000D+00
     1.501096582031D+04 2.717545509338D+00-9.313225746155D-10 0.000000000000D+00
R08 2023 06 27 11 45 02-7.141474634409D-05 0.000000000000D+00 2.151180000000D+05
     4.138060058594D+03-2.834042549133D+00 0.000000000000D+00 0.000000000000D+00
     1.228273876953D+04-9.886884689331D-01 0.000000000000D+00 6.000000000000D+00
     2.203448730469D+04 1.083642959595D+00-1.862645149231D-09 0.000000000000D+00
R14 2023 06 27 10 45 02 2.485979348421D-05 0.000000000000D+00 2.115180000000D+05
     1.575347949219D+04 1.517945289612D+00 1.862645149231D-09 0.000000000000D+00
    -1.532358691406D+04-9.165725708008D-01-1.862645149231D-09-7.000000000000D+00
     1.294640869141D+04-2.937573432922D+00 0.000000000000D+00 0.000000000000D+00
R15 2023 06 27 10 45 02 8.827727288008D-05 0.000000000000D+00 2.115180000000D+05
    -5.484282226563D+02 2.729740142822D+00 1.862645149231D-09 0.000000000000D+00
    -1.191813134766D+04-1.433141708374D+00-9.313225746155D-10 0.000000000000D+00
     2.256855419922D+04-6.919708251953D-01-1.862645149231D-09 0.000000000000D+00
R15 2023 06 27 11 15 02 8.827727288008D-05 0.000000000000D+00 2.133180000000D+05
     3.974359863281D+03 2.260845184326D+00 1.862645149231D-09 0.000000000000D+00
    -1.472287792969D+04-1.646903991699D+00-1.862645149231D-09 0.000000000000D+00
     2.046868408203D+04-1.626170158386D+00-9.313225746155D-10 0.000000000000D+00
R15 2023 06 27 12 15 02 8.828192949295D-05 0.000000000000D+00 2.169180000000D+05
     9.813230468750D+03 9.464960098267D-01 9.313225746155D-10 0.000000000000D+00
    -2.037549072266D+04-1.312756538391D+00-2.793967723846D-09 0.000000000000D+00
     1.181423876953D+04-3.056987762451D+00 0.000000000000D+00 0.000000000000D+00
R15 2023 06 27 12 45 02 8.828192949295D-05 0.000000000000D+00 2.187180000000D+05
     1.093479492188D+04 3.177537918091D-01 0.000000000000D+00 0.000000000000D+00
    -2.227213232422D+04-7.562522888184D-01-2.793967723846D-09 0.000000000000D+00
     5.926237304688D+03-3.442820549011D+00 0.000000000000D+00 0.000000000000D+00
R16 2023 06 27 12 15 02 1.607183367014D-05 9.094947017729D-13 2.169180000000D+05
    -4.107759277344D+03 1.925830841064D+00 9.313225746155D-10 0.000000000000D+00
    -1.155659814453D+04-2.379605293274D+00-1.862645149231D-09-1.000000000000D+00
     2.237419677734D+04-8.794097900391D-01-1.862645149231D-09 0.000000000000D+00
R23 2023 06 27 10 15 02-8.745212107897D-05-9.094947017729D-13 2.097180000000D+05
     9.452049316406D+03-6.251115798950D-01 9.313225746155D-10 0.000000000000D+00
     5.254626464844D+03 3.108256340027D+00 0.000000000000D+00 3.000000000000D+00
     2.308714355469D+04-4.511699676514D-01-9.313225746155D-10 0.000000000000D+00
R23 2023 06 27 10 45 02-8.745491504669D-05-9.094947017729D-13 2.115180000000D+05
     8.776224121094D+03-1.295423507690D-01 0.000000000000D+00 0.000000000000D+00
     1.074211669922D+04 2.936308860779D+00 0.000000000000D+00 3.000000000000D+00
     2.139181103516D+04-1.420272827148D+00-9.313225746155D-10 0.000000000000D+00
R23 2023 06 27 11 15 02-8.745770901442D-05-9.094947017729D-13 2.133180000000D+05
     8.939214843750D+03 2.890663146973D-01 0.000000000000D+00 0.000000000000D+00
     1.564505126953D+04 2.465433120728D+00 0.000000000000D+00 3.000000000000D+00
     1.804036328125D+04-2.279326438904D+00-9.313225746155D-10 0.000000000000D+00
R23 2023 06 27 12 15 02-8.746236562729D-05-9.094947017729D-13 2.169180000000D+05
     1.072006982422D+04 5.422773361206D-01-9.313225746155D-10 0.000000000000D+00
     2.188714892578D+04 9.093856811523D-01 1.862645149231D-09 3.000000000000D+00
     7.515837890625D+03-3.414926528931D+00-9.313225746155D-10 0.000000000000D+00
R23 2023 06 27 12 45 02-8.746515959501D-05-9.094947017729D-13 2.187180000000D+05
     1.150782080078D+04 2.903919219971D-01-9.313225746155D-10 0.000000000000D+00
     2.273482421875D+04 3.882694244385D-02 2.793967723846D-09 3.000000000000D+00
     1.157720703125D+03-3.603741645813D+00 0.000000000000D+00 0.000000000000D+00
R24 2023 06 27 10 45 02-1.389998942614D-05-1.818989403546D-12 2.115180000000D+05
     1.073853808594D+04-2.575473785400D-01 1.862645149231D-09 0.000000000000D+00
    -8.092383789063D+03 2.957114219666D+00-9.313225746155D-10 2.000000000000D+00
     2.168927294922D+04 1.229648590088D+00-9.313225746155D-10 0.000000000000D+00
R24 2023 06 27 11 15 02-1.390278339386D-05-1.818989403546D-12 2.133180000000D+05
     1.067256933594D+04 1.929159164429D-01 9.313225746155D-10 0.000000000000D+00
    -2.553369628906D+03 3.146502494812D+00-9.313225746155D-10 2.000000000000D+00
     2.303677734375D+04 2.578353881836D-01-9.313225746155D-10 0.000000000000D+00
R24 2023 06 27 11 45 02-1.390650868416D-05-1.818989403546D-12 2.151180000000D+05
     1.143148339844D+04 6.407842636108D-01 9.313225746155D-10 0.000000000000D+00
     3.048671386719D+03 3.026884078979D+00-9.313225746155D-10 2.000000000000D+00
     2.260534130859D+04-7.341566085815D-01-9.313225746155D-10 0.000000000000D+00
